[{"OBJECT_NAME":"STARLINK-35119","OBJECT_ID":"2025-198S","EPOCH":"2026-03-09T22:33:37.251072","MEAN_MOTION":15.30190412,"ECCENTRICITY":9.477e-5,"INCLINATION":53.1586,"RA_OF_ASC_NODE":270.1734,"ARG_OF_PERICENTER":99.5632,"MEAN_ANOMALY":260.5476,"EPHEMERIS_TYPE":0,"CLASSIFICATION_TYPE":"U","NORAD_CAT_ID":65508,"ELEMENT_SET_NO":999,"REV_AT_EPOCH":2865,"BSTAR":0.00054894195,"MEAN_MOTION_DOT":0.00015929,"MEAN_MOTION_DDOT":0},{"OBJECT_NAME":"CZ-4B DEB","OBJECT_ID":"2008-053J","EPOCH":"2026-03-09T11:59:22.469568","MEAN_MOTION":15.1637526,"ECCENTRICITY":0.00601661,"INCLINATION":97.7872,"RA_OF_ASC_NODE":170.5072,"ARG_OF_PERICENTER":304.792,"MEAN_ANOMALY":54.7659,"EPHEMERIS_TYPE":0,"CLASSIFICATION_TYPE":"U","NORAD_CAT_ID":35573,"ELEMENT_SET_NO":999,"REV_AT_EPOCH":91868,"BSTAR":0.0017688276,"MEAN_MOTION_DOT":0.00036031,"MEAN_MOTION_DDOT":0}]
